#dP2022  3 10  6  0  0.00000000      96 __u+U ITR00 EXT  IAC
## 2200 367200.00000000   900.00000000 59648 0.2500000000000
+  117   C06C07C08C09C10C11C12C13C14C16C19C20C21C22C23C24C25
+        C26C27C28C29C30C32C33C34C35C36C37C38C39C40C41C42C43
+        C44C45C46E01E02E03E04E05E07E08E09E10E11E12E13E14E15
+        E18E19E21E25E26E27E30E31E33E34E36G01G02G03G04G05G06
+        G07G08G09G10G11G12G13G14G15G16G17G18G19G20G21G22G23
+        G24G25G26G27G28G29G30G31G32J01J02J03R01R02R03R04R05
+        R07R08R09R11R12R13R14R15R17R18R19R20R21R22R24  0  0
++        10 10 10 10  9 13 11  9  9  8  8 10  9  9  8  8 10
++        10  9 10 10  9  8  9  8  8  9  9  9  9 10 10  8 10
++         8  8  9  8  8  8  8  9  9  9  8  8  8  8  9  8  8
++         9  8  9  8  9  8  8  8  9  8  8  8  8  9  9  8  8
++         8  8  8  8  8  8  7  7  7  8  9  8  9  8  8  8  8
++         7  8  8  8  8  9  7  7  8 11  8  9  8  8  9  9  9
++         9  9  8  8  9  8  8  8  9  9  9 10  8 10  9  0  0
%c M  cc GPS ccc cccc cccc cccc cccc ccccc ccccc ccccc ccccc
%c cc cc ccc ccc cccc cccc cccc cccc ccccc ccccc ccccc ccccc
%f  0.0000000  0.000000000  0.00000000000  0.000000000000000
%f  0.0000000  0.000000000  0.00000000000  0.000000000000000
%i    0    0    0    0      0      0      0      0         0
%i    0    0    0    0      0      0      0      0         0
/* IAC                                ULTRA-RAPID PREDICTION
/* S/V CLOCKS ARE ALIGNED TO GNSS TIME                      
/* G:C1WC2W R:C1PC2P E:C1XC5X C:C2IC6I J:C1CC2S             
/* PCV:IGS14_2196 OL/AL:FES2004  NONE     YN ORB:CoN CLK:CoN
*  2022 03 10 23  0  0.00000000
PC06  -6341.945673  24020.503848  34084.064723   -413.476500
PC07 -18455.596356  34620.303635 -15629.570030    151.101882
PC08  -4000.408364  38477.719206 -16577.934631    188.193585
PC09   5456.002038  27822.136973  31691.696948   -593.185563
PC10 -11766.989836  34698.322002 -21007.178350    139.035391
PC11 -10228.859996 -17893.787817  18889.403569   -159.476743
PC12   9457.852665 -12532.870732  23105.791142    682.766312
PC13   1789.045867  41150.626442  -8247.825401    -93.489921
PC14    106.842055 -18504.041483 -20845.926826    451.669028
PC16  -7492.855946  23066.379453  34654.038166     99.461823
PC19   9508.708709  12652.274399  23014.108590    887.585672
PC20  -8109.154171  20983.603108  16550.779529   -842.741015
PC21  21994.126346 -17154.476210    317.524660   -921.744894
PC22  22332.701833  -3301.753278  16393.115932   -960.142922
PC23 -16552.274477  -6223.066519  21585.916977   -945.757751
PC24   1661.913648 -26836.607996  -7538.954500   -945.986700
PC25 -11723.339137 -22886.949316  10856.936017   -767.760913
PC26  11785.646381 -15730.708874 -19836.635629    767.939168
PC27 -18163.597668   7346.726978 -19881.945711    689.906269
PC28 -26467.658194  -6384.398895  -6115.366358     41.981099
PC29  19772.644133  15901.416959 -11631.539856    525.892070
PC30    578.630194  16726.804421 -22339.465327    494.909352
PC32 -21867.792366  17342.452271   -305.062791   -970.083264
PC33  -9542.214768 -12641.341691 -22965.455086   -964.441869
PC34  -1581.275884 -16983.848156  22070.782299   -451.221713
PC35  26745.444829   6025.160604   5314.024690    176.227932
PC36  10927.347656  23453.168461 -10428.690071   -936.628730
PC37 -12669.746240  14291.958939  20346.324087   -944.265268
PC38  -8710.782911  35023.494820 -21640.176006    217.049181
PC39 -14269.622654  20209.533762  34138.859843     34.858072
PC40 -25305.121921  30318.665231 -15007.829965    251.188485
PC41 -22177.692458   3031.856664 -16608.900334   -952.897253
PC42   8999.903612 -21137.655232 -15781.136373   -936.853884
PC43 -19161.572671 -16228.990777  12136.719292   -936.875494
PC44  18160.798629  -7905.365741  19663.278309    590.681468
PC45  16454.090436   5913.315160 -21749.036657    701.371205
PC46   -624.531245  27170.184316   6238.492541   -210.874386
PE01 -12443.653225  26687.118405   2955.920908   -594.342137
PE02  12369.595615 -26758.019752  -2817.785461    285.419790
PE03  14556.655378 -16500.889489 -19793.758962   -536.047999
PE04   7378.574114  15868.244752  23881.183877   -981.795102
PE05  28371.956348  -7439.511467  -3981.346551   -201.579962
PE07 -25479.828141  -5806.545580 -13900.739747   -647.066124
PE08  -7857.133188 -15578.102424 -23909.223913   -492.988126
PE09  25603.060936   5497.538467  13793.234237   5332.916613
PE10  19067.958968  22641.878621    250.301846   -499.779151
PE11  22314.536319  16505.906954  10313.271822   4262.257782
PE12  12831.586508  25025.270255  -9271.687217   4719.902221
PE13 -22222.558270 -16953.109896  -9716.343620    427.180469
PE14   1176.529579 -15181.885347  18372.192575  -1773.700614
PE15 -12781.045581 -24964.666849   9455.610007    758.556633
PE18  -7407.027183  19799.157584 -24285.613895  -1699.155616
PE19 -17003.591566  15733.033592  18431.434348  -1103.061744
PE21 -18676.444879  13497.919228  18567.177727   -721.792408
PE25  18703.857324 -13253.397276 -18733.555211   -566.353492
PE26 -18139.065406   1996.065681 -23296.947198   -897.581981
PE27 -14600.850600  -8251.708869  24388.205454   -250.267047
PE30  -1089.456515 -25512.918991  14972.224997   -338.263159
PE31   1978.306373  24939.910126 -15811.172803   -493.344813
PE33  -4128.218169  18232.377777 -22946.182949   -458.691111
PE34   3929.337662 -18371.550027  22871.803888   -506.073754
PE36  18556.148358   -953.073747  23052.210172   -343.498997
PG01  18232.336446   7864.109024  17531.007152    412.002168
PG02 -14864.472967 -21908.114169   1325.017374   -652.086110
PG03  17230.108428  -3605.188699  19751.105224   -157.639347
PG04  26573.548127    834.214408   1018.684180   -184.507932
PG05 -10231.139851 -12726.947971 -21080.646296    -74.226585
PG06  -2638.985945 -22295.358787  14198.214735    227.143750
PG07  12300.053760  -9056.111710 -21324.375683    315.313888
PG08  23387.639752   6580.243703 -11170.355255    -59.349717
PG09  23532.294072  -7912.804536  -9547.894043   -350.423149
PG10 -11169.453131  23845.079696   2053.587570   -343.158136
PG11 -12556.416016 -23413.098822    212.297523    -65.675035
PG12 -16272.994633   -816.756168  20679.824835   -182.966493
PG13 -16682.803009 -13014.287941 -16307.434707    274.755093
PG14  12774.525720 -23211.872290   1140.761767    -92.574920
PG15 -24191.569839  -4400.366256 -10848.562778    -77.770014
PG16   5647.869210  16513.889290 -20150.053807   -479.168171
PG17  10906.952735 -13463.741533  20578.278951    585.574078
PG18 -11939.584005   9195.857945 -21868.261776    222.735550
PG19   2444.964339 -14538.152898  21826.570579    129.347758
PG20  -4734.516858 -20990.745308 -15726.410640    516.354812
PG21  19993.340348  15279.631075  10122.505819    159.216608
PG22   1223.555127  15431.588024  21996.960611    225.571209
PG23 -16409.841605  18771.581045  -9025.958282     -5.726344
PG24 -20208.492431 -10557.772802  13658.926647    269.136067
PG25 -18080.830640  12847.725272  14114.207781    296.566529
PG26  -2184.333309  23865.696010 -11194.052768    189.768431
PG27  14078.879513  12546.343002 -19062.973044    149.615304
PG28   7469.175289 -23742.183100  10105.323457    383.261440
PG29 -24981.158404   4280.467561  -8090.042752   -489.836132
PG30   6131.408643 -17233.548046 -19098.636218   -517.998716
PG31   3994.753654  23201.199519  11697.711817   -168.354120
PG32  -6227.270369  15051.253149  21079.361528    -82.357725
PJ01 -32070.304390  26101.879580  13098.189652    205.698036
PJ02 -31018.925939  25829.897790  17103.145242     -1.882063
PJ03 -26597.970263  16404.309876 -23706.758621     -0.916642
PR01  21674.385470 -13256.877442  -2188.049618      7.207840
PR02   8455.756790 -14532.399700 -19161.342116    512.106437
PR03  -9186.336510  -7280.303952 -22601.486336     52.891370
PR04 -21302.188271   4032.191770 -13400.511159    131.324669
PR05 -21725.576681  12949.830753   3230.616378     89.136226
PR07   9945.661079   6839.378543  22519.373617     32.509296
PR08  21382.432997  -4055.746937  13385.360944    -63.954668
PR09  -1417.149373  25438.806881   1879.304493     43.668943
PR11  10743.921800   3574.673120 -22851.968133     43.850107
PR12   8968.159158 -16090.618062 -17636.905149     17.400070
PR13   2044.608948 -25242.050721  -3098.111558    -19.291111
PR14  -6566.129458 -19733.927749  14765.788116     75.249266
PR15 -10896.644531  -2833.118174  22901.693322     97.627285
PR17 -18113.814966 -15978.155305   8258.722758    508.465522
PR18 -21960.854360  -9608.180972  -8620.070567    109.887115
PR19 -15154.976824    636.949225 -20504.925642   -181.104602
PR20   2869.577379  13504.054376 -21451.894225    -66.496184
PR21  18816.853490  15782.001439  -6859.309753   -284.298093
PR22  21848.127571   9289.692884   9456.578943   -169.797853
PR24  -3559.738541 -14063.913208  21000.426195     83.792317
EOF
